NORAD_CAT_ID,OBJECT_NAME,OBJECT_TYPE,EPOCH,MEAN_MOTION,ECCENTRICITY,INCLINATION,RA_OF_ASC_NODE,ARG_OF_PERICENTER,MEAN_ANOMALY,BSTAR,MEAN_MOTION_DOT,MEAN_MOTION_DDOT,TLE_LINE0,TLE_LINE1,TLE_LINE2,SEMIMAJOR_AXIS,PERIOD,APOGEE,PERIGEE,DECAYED
52625.0,STARLINK-3988,PAYLOAD,2023-03-01 13:42:06,15.08832109,0.0001413,53.2147,185.7031,64.4082,295.7056,0.0017845,0.0002822,0.0,0 STARLINK-3988,1 52625U 22052AD  23060.57090288  .00028220  00000-0  17845-2 0  9992,2 52625  53.2147 185.7031 0001413  64.4082 295.7056 15.08832109 44685,6917.905,95.438,540.747,538.792,0.0
52625.0,STARLINK-3988,PAYLOAD,2023-03-01 20:03:38,15.08852338,0.0001455,53.2149,184.5131,67.7441,292.3705,0.0019822,0.0003141,0.0,0 STARLINK-3988,1 52625U 22052AD  23060.83586146  .00031410  00000-0  19822-2 0  9996,2 52625  53.2149 184.5131 0001455  67.7441 292.3705 15.08852338 44349,6917.843,95.437,540.714,538.701,0.0
52625.0,STARLINK-3988,PAYLOAD,2023-03-02 00:49:47,15.08837307,0.0001173,53.2151,183.6211,80.325,279.7875,0.00043129,6.582e-05,0.0,0 STARLINK-3988,1 52625U 22052AD  23061.03458167  .00006582  00000-0  43129-3 0  9990,2 52625  53.2151 183.6211 0001173  80.3250 279.7875 15.08837307 44758,6917.889,95.438,540.565,538.942,0.0
52625.0,STARLINK-3988,PAYLOAD,2023-03-02 18:19:01,15.088791,0.0001424,53.2157,180.3482,72.7984,287.3164,0.002243,0.00035628,0.0,0 STARLINK-3988,1 52625U 22052AD  23061.76321544  .00035628  00000-0  22430-2 0  9992,2 52625  53.2157 180.3482 0001424  72.7984 287.3164 15.08879100 44861,6917.761,95.435,540.611,538.641,0.0
52625.0,STARLINK-3988,PAYLOAD,2023-03-03 10:12:52,15.08879993,0.0001174,53.2148,177.3764,114.7869,245.3245,0.0025388,0.00040393,0.0,0 STARLINK-3988,1 52625U 22052AD  23062.42560964  .00040393  00000-0  25388-2 0  9997,2 52625  53.2148 177.3764 0001174 114.7869 245.3245 15.08879993 44966,6917.758,95.435,540.435,538.811,0.0
52625.0,STARLINK-3988,PAYLOAD,2023-03-03 16:34:24,15.08900521,0.0001122,53.2149,176.187,107.9971,252.1144,0.0031547,0.00050362,0.0,0 STARLINK-3988,1 52625U 22052AD  23062.69056221  .00050362  00000-0  31547-2 0  9993,2 52625  53.2149 176.1870 0001122 107.9971 252.1144 15.08900521 44622,6917.695,95.434,540.337,538.784,0.0
52625.0,STARLINK-3988,PAYLOAD,2023-03-04 00:31:20,15.08873156,0.0001588,53.2147,174.7,86.4476,273.6697,0.00068607,0.00010658,0.0,0 STARLINK-3988,1 52625U 22052AD  23063.02176268  .00010658  00000-0  68607-3 0  9997,2 52625  53.2147 174.7000 0001588  86.4476 273.6697 15.08873156 45058,6917.779,95.435,540.743,538.546,0.0
52625.0,STARLINK-3988,PAYLOAD,2023-03-04 10:03:39,15.08845454,0.0001323,53.2154,172.9167,92.6527,267.4616,0.001398,0.00022034,0.0,0 STARLINK-3988,1 52625U 22052AD  23063.41920631  .00022034  00000-0  13980-2 0  9995,2 52625  53.2154 172.9167 0001323  92.6527 267.4616 15.08845454 45112,6917.864,95.437,540.644,538.813,0.0
52625.0,STARLINK-3988,PAYLOAD,2023-03-04 11:39:02,15.08843818,0.0001185,53.2157,172.6191,91.3678,268.745,0.0018519,0.00029311,0.0,0 STARLINK-3988,1 52625U 22052AD  23063.48544733  .00029311  00000-0  18519-2 0  9995,2 52625  53.2157 172.6191 0001185  91.3678 268.7450 15.08843818 44748,6917.869,95.437,540.553,538.914,0.0
52625.0,STARLINK-3988,PAYLOAD,2023-03-04 16:25:12,15.08847189,0.0001486,53.2148,171.7269,77.421,282.6948,0.0021731,0.00034473,0.0,0 STARLINK-3988,1 52625U 22052AD  23063.68416935  .00034473  00000-0  21731-2 0  9994,2 52625  53.2148 171.7269 0001486  77.4210 282.6948 15.08847189 44770,6917.858,95.437,540.751,538.695,0.0
52625.0,STARLINK-3988,PAYLOAD,2023-03-05 00:22:08,15.08836427,0.0001595,53.2153,170.2402,80.454,279.6632,0.00090868,0.00014202,0.0,0 STARLINK-3988,1 52625U 22052AD  23064.01537359  .00014202  00000-0  90868-3 0  9992,2 52625  53.2153 170.2402 0001595  80.4540 279.6632 15.08836427 45208,6917.891,95.438,540.86,538.653,0.0
52625.0,STARLINK-3988,PAYLOAD,2023-03-05 06:43:41,15.08851644,0.0002171,53.2148,169.0545,75.5954,284.5279,0.0018355,0.00029055,0.0,0 STARLINK-3988,1 52625U 22052AD  23064.28033693  .00029055  00000-0  18355-2 0  9995,2 52625  53.2148 169.0545 0002171  75.5954 284.5279 15.08851644 44862,6917.845,95.437,541.212,538.208,0.0
52625.0,STARLINK-3988,PAYLOAD,2023-03-06 11:20:37,15.08857777,0.0001728,53.2158,163.6979,107.4034,252.7147,0.00080612,0.00012571,0.0,0 STARLINK-3988,1 52625U 22052AD  23065.47265104  .00012571  00000-0  80612-3 0  9992,2 52625  53.2158 163.6979 0001728 107.4034 252.7147 15.08857777 45422,6917.826,95.436,540.886,538.496,0.0
52625.0,STARLINK-3988,PAYLOAD,2023-03-06 16:06:46,15.08870869,0.0001574,53.2152,162.8045,100.3724,259.7446,0.00099047,0.00015524,0.0,0 STARLINK-3988,1 52625U 22052AD  23065.67136652  .00015524  00000-0  99047-3 0  9992,2 52625  53.2152 162.8045 0001574 100.3724 259.7446 15.08870869 45075,6917.786,95.436,540.74,538.562,0.0
52625.0,STARLINK-3988,PAYLOAD,2023-03-07 09:36:01,15.08833646,0.0001523,53.2142,159.5354,114.6632,245.4519,0.00010335,1.357e-05,0.0,0 STARLINK-3988,1 52625U 22052AD  23066.40001668  .00001357  00000-0  10335-3 0  9994,2 52625  53.2142 159.5354 0001523 114.6632 245.4519 15.08833646 45569,6917.9,95.438,540.818,538.711,0.0
52625.0,STARLINK-3988,PAYLOAD,2023-03-07 15:57:34,15.0884684,0.0001651,53.214,158.3439,106.8281,253.2893,0.0011453,0.0001799,0.0,0 STARLINK-3988,1 52625U 22052AD  23066.66497814  .00017990  00000-0  11453-2 0  9995,2 52625  53.2140 158.3439 0001651 106.8281 253.2893 15.08846840 45600,6917.859,95.437,540.867,538.582,0.0
52625.0,STARLINK-3988,PAYLOAD,2023-03-07 17:32:57,15.08855512,0.0001563,53.2147,158.0476,116.2359,243.8794,0.0019975,0.00031659,0.0,0 STARLINK-3988,1 52625U 22052AD  23066.73121680  .00031659  00000-0  19975-2 0  9993,2 52625  53.2147 158.0476 0001563 116.2359 243.8794 15.08855512 45610,6917.833,95.437,540.779,538.617,0.0
52625.0,STARLINK-3988,PAYLOAD,2023-03-08 09:26:48,15.08844381,0.0001127,53.2157,155.0741,118.698,241.4126,0.0012837,0.00020204,0.0,0 STARLINK-3988,1 52625U 22052AD  23067.39362247  .00020204  00000-0  12837-2 0  9996,2 52625  53.2157 155.0741 0001127 118.6980 241.4126 15.08844381 45711,6917.867,95.437,540.512,538.952,0.0
52625.0,STARLINK-3988,PAYLOAD,2023-03-09 10:52:58,15.08865909,0.0001173,53.2159,150.3171,92.3592,267.7535,0.002883,0.00045927,0.0,0 STARLINK-3988,1 52625U 22052AD  23068.45345879  .00045927  00000-0  28830-2 0  9995,2 52625  53.2159 150.3171 0001173  92.3592 267.7535 15.08865909 45877,6917.801,95.436,540.478,538.855,0.0
52625.0,STARLINK-3988,PAYLOAD,2023-03-09 22:00:40,15.08879631,0.0001412,53.2154,148.2356,100.3492,259.7659,0.0021735,0.00034511,0.0,0 STARLINK-3988,1 52625U 22052AD  23068.91713358  .00034511  00000-0  21735-2 0  9991,2 52625  53.2154 148.2356 0001412 100.3492 259.7659 15.08879631 45569,6917.759,95.435,540.601,538.647,0.0
52625.0,STARLINK-3988,PAYLOAD,2023-03-10 10:43:45,15.08854145,0.0001754,53.2156,145.8579,106.3447,253.7738,0.0016389,0.00025902,0.0,0 STARLINK-3988,1 52625U 22052AD  23069.44705454  .00025902  00000-0  16389-2 0  9991,2 52625  53.2156 145.8579 0001754 106.3447 253.7738 15.08854145 46023,6917.837,95.437,540.916,538.489,0.0
52625.0,STARLINK-3988,PAYLOAD,2023-03-10 21:51:27,15.08858029,0.0001796,53.2146,143.7749,72.9734,287.1455,0.0011891,0.00018697,0.0,0 STARLINK-3988,1 52625U 22052AD  23069.91073382  .00018697  00000-0  11891-2 0  9997,2 52625  53.2146 143.7749 0001796  72.9734 287.1455 15.08858029 45718,6917.825,95.436,540.933,538.448,0.0
52625.0,STARLINK-3988,PAYLOAD,2023-03-11 04:13:00,15.08809826,0.000204,53.2141,142.586,88.535,271.5875,2.013e-05,3.2e-07,0.0,0 STARLINK-3988,1 52625U 22052AD  23070.17570158  .00000032  00000-0  20130-4 0  9992,2 52625  53.2141 142.5860 0002040  88.5350 271.5875 15.08809826 46135,6917.973,95.439,541.249,538.426,0.0
52625.0,STARLINK-3988,PAYLOAD,2023-03-11 10:34:33,15.08812088,0.0001641,53.2142,141.3979,90.0509,270.0671,-0.00025412,-4.327e-05,0.0,0 STARLINK-3988,1 52625U 22052AD  23070.44066498 -.00004327  00000-0 -25412-3 0  9999,2 52625  53.2142 141.3979 0001641  90.0509 270.0671 15.08812088 45797,6917.966,95.439,540.966,538.695,0.0
52625.0,STARLINK-3988,PAYLOAD,2023-03-11 13:45:19,15.08827025,0.0001448,53.2146,140.799,110.3288,249.786,0.0004497,6.874e-05,0.0,0 STARLINK-3988,1 52625U 22052AD  23070.57314322  .00006874  00000-0  44970-3 0  9992,2 52625  53.2146 140.7990 0001448 110.3288 249.7860 15.08827025 46197,6917.92,95.438,540.787,538.783,0.0
52625.0,STARLINK-3988,PAYLOAD,2023-03-12 10:25:21,15.08836653,0.0001605,53.2142,136.9351,77.3992,282.7179,0.00063253,9.792e-05,0.0,0 STARLINK-3988,1 52625U 22052AD  23071.43427279  .00009792  00000-0  63253-3 0  9991,2 52625  53.2142 136.9351 0001605  77.3992 282.7179 15.08836653 45949,6917.891,95.438,540.866,538.645,0.0
52625.0,STARLINK-3988,PAYLOAD,2023-03-13 15:02:16,15.08857898,0.0001838,53.2142,131.5833,71.1944,288.9247,0.0005103,7.847e-05,0.0,0 STARLINK-3988,1 52625U 22052AD  23072.62658512  .00007847  00000-0  51030-3 0  9998,2 52625  53.2142 131.5833 0001838  71.1944 288.9247 15.08857898 46503,6917.826,95.436,540.962,538.419,0.0
52625.0,STARLINK-3988,PAYLOAD,2023-03-14 10:06:55,15.08841546,0.0001617,53.2146,128.0114,110.5026,249.614,0.00011469,1.538e-05,0.0,0 STARLINK-3988,1 52625U 22052AD  23073.42147093  .00001538  00000-0  11469-3 0  9997,2 52625  53.2146 128.0114 0001617 110.5026 249.6140 15.08841546 46626,6917.876,95.437,540.859,538.622,0.0
52625.0,STARLINK-3988,PAYLOAD,2023-03-15 09:57:41,15.08867138,0.0001605,53.2148,123.5551,103.6986,256.4185,0.00083547,0.00013043,0.0,0 STARLINK-3988,1 52625U 22052AD  23074.41505988  .00013043  00000-0  83547-3 0  9998,2 52625  53.2148 123.5551 0001605 103.6986 256.4185 15.08867138 46774,6917.797,95.436,540.773,538.552,0.0
52625.0,STARLINK-3988,PAYLOAD,2023-03-16 11:23:51,15.08844274,0.0001148,53.2151,118.7939,113.2534,246.8579,3.1255e-05,2.1e-06,0.0,0 STARLINK-3988,1 52625U 22052AD  23075.47490071  .00000210  00000-0  31255-4 0  9993,2 52625  53.2151 118.7939 0001148 113.2534 246.8579 15.08844274 46936,6917.867,95.437,540.526,538.938,0.0
